{
  "type": "FeatureCollection",
  "features": [
    {
      "type": "Feature",
      "properties": {
        "norad_id": 39773,
        "name": "EUTELSAT 3B",
        "group": "eutelsat",
        "lat": -0.03162567045563072,
        "lon": -29.063319051866824,
        "alt_km": 35788.156994127574,
        "timestamp": "2025-12-26T15:29:39.109611+00:00",
        "meta_object_name": "EUTELSAT 3B",
        "meta_object_id": "2014-030A",
        "meta_epoch": "2025-12-25T22:09:38.747232",
        "meta_mean_motion": 1.00270275,
        "meta_eccentricity": 0.00042764,
        "meta_inclination": 0.0601,
        "meta_ra_of_asc_node": 351.2904,
        "meta_arg_of_pericenter": 244.007,
        "meta_mean_anomaly": 194.888,
        "meta_ephemeris_type": 0,
        "meta_classification_type": "U",
        "meta_norad_cat_id": 39773,
        "meta_element_set_no": 999,
        "meta_rev_at_epoch": 4233,
        "meta_bstar": 0,
        "meta_mean_motion_dot": 4.1e-07,
        "meta_mean_motion_ddot": 0,
        "tle_line1": "1 39773U 14030A   25359.92336513  .00000041  00000+0  00000+0 0  9996",
        "tle_line2": "2 39773   0.0601 351.2904 0004276 244.0070 194.8880  1.00270275 42332"
      },
      "geometry": {
        "type": "Point",
        "coordinates": [
          -29.063319051866824,
          -0.03162567045563072
        ]
      }
    },
    {
      "type": "Feature",
      "properties": {
        "norad_id": 40425,
        "name": "EUTELSAT 115 WEST B",
        "group": "eutelsat",
        "lat": 0.00329583723440595,
        "lon": -147.11117833728568,
        "alt_km": 35785.8791429716,
        "timestamp": "2025-12-26T15:29:39.109623+00:00",
        "meta_object_name": "EUTELSAT 115 WEST B",
        "meta_object_id": "2015-010B",
        "meta_epoch": "2025-12-26T05:44:38.581152",
        "meta_mean_motion": 1.00273604,
        "meta_eccentricity": 7.8e-06,
        "meta_inclination": 0.0077,
        "meta_ra_of_asc_node": 147.8651,
        "meta_arg_of_pericenter": 258.8043,
        "meta_mean_anomaly": 19.571,
        "meta_ephemeris_type": 0,
        "meta_classification_type": "U",
        "meta_norad_cat_id": 40425,
        "meta_element_set_no": 999,
        "meta_rev_at_epoch": 3965,
        "meta_bstar": 0,
        "meta_mean_motion_dot": -3e-08,
        "meta_mean_motion_ddot": 0,
        "tle_line1": "1 40425U 15010B   25360.23933543 -.00000003  00000+0  00000+0 0  9992",
        "tle_line2": "2 40425   0.0077 147.8651 0000078 258.8043  19.5710  1.00273604 39657"
      },
      "geometry": {
        "type": "Point",
        "coordinates": [
          -147.11117833728568,
          0.00329583723440595
        ]
      }
    },
    {
      "type": "Feature",
      "properties": {
        "norad_id": 40875,
        "name": "EUTELSAT 8 WEST B",
        "group": "eutelsat",
        "lat": -0.06583631131613743,
        "lon": -40.175833391997244,
        "alt_km": 35773.4303692397,
        "timestamp": "2025-12-26T15:29:39.109639+00:00",
        "meta_object_name": "EUTELSAT 8 WEST B",
        "meta_object_id": "2015-039B",
        "meta_epoch": "2025-12-26T06:08:50.644608",
        "meta_mean_motion": 1.00271377,
        "meta_eccentricity": 0.00042085,
        "meta_inclination": 0.0651,
        "meta_ra_of_asc_node": 11.4179,
        "meta_arg_of_pericenter": 264.1892,
        "meta_mean_anomaly": 263.6052,
        "meta_ephemeris_type": 0,
        "meta_classification_type": "U",
        "meta_norad_cat_id": 40875,
        "meta_element_set_no": 999,
        "meta_rev_at_epoch": 3792,
        "meta_bstar": 0,
        "meta_mean_motion_dot": -4.4e-07,
        "meta_mean_motion_ddot": 0,
        "tle_line1": "1 40875U 15039B   25360.25614172 -.00000044  00000+0  00000+0 0  9993",
        "tle_line2": "2 40875   0.0651  11.4179 0004208 264.1892 263.6052  1.00271377 37920"
      },
      "geometry": {
        "type": "Point",
        "coordinates": [
          -40.175833391997244,
          -0.06583631131613743
        ]
      }
    },
    {
      "type": "Feature",
      "properties": {
        "norad_id": 41310,
        "name": "EUTELSAT 9B",
        "group": "eutelsat",
        "lat": -0.03698864462163811,
        "lon": -23.16658946586969,
        "alt_km": 35777.13739408822,
        "timestamp": "2025-12-26T15:29:39.109664+00:00",
        "meta_object_name": "EUTELSAT 9B",
        "meta_object_id": "2016-005A",
        "meta_epoch": "2025-12-25T22:01:38.544672",
        "meta_mean_motion": 1.0026988,
        "meta_eccentricity": 0.00046842,
        "meta_inclination": 0.0266,
        "meta_ra_of_asc_node": 46.8521,
        "meta_arg_of_pericenter": 228.3219,
        "meta_mean_anomaly": 158.904,
        "meta_ephemeris_type": 0,
        "meta_classification_type": "U",
        "meta_norad_cat_id": 41310,
        "meta_element_set_no": 999,
        "meta_rev_at_epoch": 3637,
        "meta_bstar": 0,
        "meta_mean_motion_dot": 8.3e-07,
        "meta_mean_motion_ddot": 0,
        "tle_line1": "1 41310U 16005A   25359.91780723  .00000083  00000+0  00000+0 0  9991",
        "tle_line2": "2 41310   0.0266  46.8521 0004684 228.3219 158.9040  1.00269880 36370"
      },
      "geometry": {
        "type": "Point",
        "coordinates": [
          -23.16658946586969,
          -0.03698864462163811
        ]
      }
    },
    {
      "type": "Feature",
      "properties": {
        "norad_id": 41382,
        "name": "EUTELSAT 65 WEST A",
        "group": "eutelsat",
        "lat": -0.06500204944164828,
        "lon": -97.39427245410816,
        "alt_km": 35776.65521303864,
        "timestamp": "2025-12-26T15:29:39.109688+00:00",
        "meta_object_name": "EUTELSAT 65 WEST A",
        "meta_object_id": "2016-014A",
        "meta_epoch": "2025-12-26T05:52:37.198272",
        "meta_mean_motion": 1.00271283,
        "meta_eccentricity": 0.00023625,
        "meta_inclination": 0.0476,
        "meta_ra_of_asc_node": 346.7914,
        "meta_arg_of_pericenter": 291.636,
        "meta_mean_anomaly": 199.5409,
        "meta_ephemeris_type": 0,
        "meta_classification_type": "U",
        "meta_norad_cat_id": 41382,
        "meta_element_set_no": 999,
        "meta_rev_at_epoch": 3580,
        "meta_bstar": 0,
        "meta_mean_motion_dot": -2.54e-06,
        "meta_mean_motion_ddot": 0,
        "tle_line1": "1 41382U 16014A   25360.24487498 -.00000254  00000+0  00000+0 0  9992",
        "tle_line2": "2 41382   0.0476 346.7914 0002362 291.6360 199.5409  1.00271283 35808"
      },
      "geometry": {
        "type": "Point",
        "coordinates": [
          -97.39427245410816,
          -0.06500204944164828
        ]
      }
    },
    {
      "type": "Feature",
      "properties": {
        "norad_id": 41589,
        "name": "EUTELSAT 117 WEST B",
        "group": "eutelsat",
        "lat": 0.001767327156988394,
        "lon": -149.17609859971492,
        "alt_km": 35783.93761541022,
        "timestamp": "2025-12-26T15:29:39.109701+00:00",
        "meta_object_name": "EUTELSAT 117 WEST B",
        "meta_object_id": "2016-038B",
        "meta_epoch": "2025-12-24T09:59:01.014144",
        "meta_mean_motion": 1.00277873,
        "meta_eccentricity": 6.384e-05,
        "meta_inclination": 0.0094,
        "meta_ra_of_asc_node": 154.0765,
        "meta_arg_of_pericenter": 139.5473,
        "meta_mean_anomaly": 192.3072,
        "meta_ephemeris_type": 0,
        "meta_classification_type": "U",
        "meta_norad_cat_id": 41589,
        "meta_element_set_no": 999,
        "meta_rev_at_epoch": 3491,
        "meta_bstar": 0,
        "meta_mean_motion_dot": 9e-08,
        "meta_mean_motion_ddot": 0,
        "tle_line1": "1 41589U 16038B   25358.41598396  .00000009  00000+0  00000+0 0  9990",
        "tle_line2": "2 41589   0.0094 154.0765 0000638 139.5473 192.3072  1.00277873 34915"
      },
      "geometry": {
        "type": "Point",
        "coordinates": [
          -149.17609859971492,
          0.001767327156988394
        ]
      }
    },
    {
      "type": "Feature",
      "properties": {
        "norad_id": 42741,
        "name": "EUTELSAT 172B",
        "group": "eutelsat",
        "lat": 0.015930746753263583,
        "lon": 139.79023997282258,
        "alt_km": 35785.74426058672,
        "timestamp": "2025-12-26T15:29:39.109714+00:00",
        "meta_object_name": "EUTELSAT 172B",
        "meta_object_id": "2017-029B",
        "meta_epoch": "2025-12-26T05:07:26.649696",
        "meta_mean_motion": 1.00270973,
        "meta_eccentricity": 1.341e-05,
        "meta_inclination": 0.0365,
        "meta_ra_of_asc_node": 154.2111,
        "meta_arg_of_pericenter": 0.1125,
        "meta_mean_anomaly": 189.4975,
        "meta_ephemeris_type": 0,
        "meta_classification_type": "U",
        "meta_norad_cat_id": 42741,
        "meta_element_set_no": 999,
        "meta_rev_at_epoch": 3199,
        "meta_bstar": 0,
        "meta_mean_motion_dot": 1.6e-07,
        "meta_mean_motion_ddot": 0,
        "tle_line1": "1 42741U 17029B   25360.21350289  .00000016  00000+0  00000+0 0  9998",
        "tle_line2": "2 42741   0.0365 154.2111 0000134   0.1125 189.4975  1.00270973 31990"
      },
      "geometry": {
        "type": "Point",
        "coordinates": [
          139.79023997282258,
          0.015930746753263583
        ]
      }
    }
  ]
}